{
  "type": "FeatureCollection",
  "features": [
    {
      "type": "Feature",
      "properties": {
        "KECAMATAN": "Wonosari"
      },
      "geometry": {
        "type": "Polygon",
        "coordinates": [
          [
            [
              110.6,
              -7.96
            ],
            [
              110.645,
              -7.96
            ],
            [
              110.645,
              -8.004999999999999
            ],
            [
              110.6,
              -8.004999999999999
            ],
            [
              110.6,
              -7.96
            ]
          ]
        ]
      }
    },
    {
      "type": "Feature",
      "properties": {
        "KECAMATAN": "Nglipar"
      },
      "geometry": {
        "type": "Polygon",
        "coordinates": [
          [
            [
              110.64999999999999,
              -7.96
            ],
            [
              110.695,
              -7.96
            ],
            [
              110.695,
              -8.004999999999999
            ],
            [
              110.64999999999999,
              -8.004999999999999
            ],
            [
              110.64999999999999,
              -7.96
            ]
          ]
        ]
      }
    },
    {
      "type": "Feature",
      "properties": {
        "KECAMATAN": "Playen"
      },
      "geometry": {
        "type": "Polygon",
        "coordinates": [
          [
            [
              110.69999999999999,
              -7.96
            ],
            [
              110.74499999999999,
              -7.96
            ],
            [
              110.74499999999999,
              -8.004999999999999
            ],
            [
              110.69999999999999,
              -8.004999999999999
            ],
            [
              110.69999999999999,
              -7.96
            ]
          ]
        ]
      }
    },
    {
      "type": "Feature",
      "properties": {
        "KECAMATAN": "Patuk"
      },
      "geometry": {
        "type": "Polygon",
        "coordinates": [
          [
            [
              110.75,
              -7.96
            ],
            [
              110.795,
              -7.96
            ],
            [
              110.795,
              -8.004999999999999
            ],
            [
              110.75,
              -8.004999999999999
            ],
            [
              110.75,
              -7.96
            ]
          ]
        ]
      }
    },
    {
      "type": "Feature",
      "properties": {
        "KECAMATAN": "Paliyan"
      },
      "geometry": {
        "type": "Polygon",
        "coordinates": [
          [
            [
              110.8,
              -7.96
            ],
            [
              110.845,
              -7.96
            ],
            [
              110.845,
              -8.004999999999999
            ],
            [
              110.8,
              -8.004999999999999
            ],
            [
              110.8,
              -7.96
            ]
          ]
        ]
      }
    },
    {
      "type": "Feature",
      "properties": {
        "KECAMATAN": "Panggang"
      },
      "geometry": {
        "type": "Polygon",
        "coordinates": [
          [
            [
              110.85,
              -7.96
            ],
            [
              110.895,
              -7.96
            ],
            [
              110.895,
              -8.004999999999999
            ],
            [
              110.85,
              -8.004999999999999
            ],
            [
              110.85,
              -7.96
            ]
          ]
        ]
      }
    },
    {
      "type": "Feature",
      "properties": {
        "KECAMATAN": "Tepus"
      },
      "geometry": {
        "type": "Polygon",
        "coordinates": [
          [
            [
              110.6,
              -8.01
            ],
            [
              110.645,
              -8.01
            ],
            [
              110.645,
              -8.055
            ],
            [
              110.6,
              -8.055
            ],
            [
              110.6,
              -8.01
            ]
          ]
        ]
      }
    },
    {
      "type": "Feature",
      "properties": {
        "KECAMATAN": "Semanu"
      },
      "geometry": {
        "type": "Polygon",
        "coordinates": [
          [
            [
              110.64999999999999,
              -8.01
            ],
            [
              110.695,
              -8.01
            ],
            [
              110.695,
              -8.055
            ],
            [
              110.64999999999999,
              -8.055
            ],
            [
              110.64999999999999,
              -8.01
            ]
          ]
        ]
      }
    },
    {
      "type": "Feature",
      "properties": {
        "KECAMATAN": "Ponjong"
      },
      "geometry": {
        "type": "Polygon",
        "coordinates": [
          [
            [
              110.69999999999999,
              -8.01
            ],
            [
              110.74499999999999,
              -8.01
            ],
            [
              110.74499999999999,
              -8.055
            ],
            [
              110.69999999999999,
              -8.055
            ],
            [
              110.69999999999999,
              -8.01
            ]
          ]
        ]
      }
    },
    {
      "type": "Feature",
      "properties": {
        "KECAMATAN": "Karangmojo"
      },
      "geometry": {
        "type": "Polygon",
        "coordinates": [
          [
            [
              110.75,
              -8.01
            ],
            [
              110.795,
              -8.01
            ],
            [
              110.795,
              -8.055
            ],
            [
              110.75,
              -8.055
            ],
            [
              110.75,
              -8.01
            ]
          ]
        ]
      }
    },
    {
      "type": "Feature",
      "properties": {
        "KECAMATAN": "Semin"
      },
      "geometry": {
        "type": "Polygon",
        "coordinates": [
          [
            [
              110.8,
              -8.01
            ],
            [
              110.845,
              -8.01
            ],
            [
              110.845,
              -8.055
            ],
            [
              110.8,
              -8.055
            ],
            [
              110.8,
              -8.01
            ]
          ]
        ]
      }
    },
    {
      "type": "Feature",
      "properties": {
        "KECAMATAN": "Ngawen"
      },
      "geometry": {
        "type": "Polygon",
        "coordinates": [
          [
            [
              110.85,
              -8.01
            ],
            [
              110.895,
              -8.01
            ],
            [
              110.895,
              -8.055
            ],
            [
              110.85,
              -8.055
            ],
            [
              110.85,
              -8.01
            ]
          ]
        ]
      }
    },
    {
      "type": "Feature",
      "properties": {
        "KECAMATAN": "Gedangsari"
      },
      "geometry": {
        "type": "Polygon",
        "coordinates": [
          [
            [
              110.6,
              -8.06
            ],
            [
              110.645,
              -8.06
            ],
            [
              110.645,
              -8.105
            ],
            [
              110.6,
              -8.105
            ],
            [
              110.6,
              -8.06
            ]
          ]
        ]
      }
    },
    {
      "type": "Feature",
      "properties": {
        "KECAMATAN": "Saptosari"
      },
      "geometry": {
        "type": "Polygon",
        "coordinates": [
          [
            [
              110.64999999999999,
              -8.06
            ],
            [
              110.695,
              -8.06
            ],
            [
              110.695,
              -8.105
            ],
            [
              110.64999999999999,
              -8.105
            ],
            [
              110.64999999999999,
              -8.06
            ]
          ]
        ]
      }
    },
    {
      "type": "Feature",
      "properties": {
        "KECAMATAN": "Girisubo"
      },
      "geometry": {
        "type": "Polygon",
        "coordinates": [
          [
            [
              110.69999999999999,
              -8.06
            ],
            [
              110.74499999999999,
              -8.06
            ],
            [
              110.74499999999999,
              -8.105
            ],
            [
              110.69999999999999,
              -8.105
            ],
            [
              110.69999999999999,
              -8.06
            ]
          ]
        ]
      }
    },
    {
      "type": "Feature",
      "properties": {
        "KECAMATAN": "Tanjungsari"
      },
      "geometry": {
        "type": "Polygon",
        "coordinates": [
          [
            [
              110.75,
              -8.06
            ],
            [
              110.795,
              -8.06
            ],
            [
              110.795,
              -8.105
            ],
            [
              110.75,
              -8.105
            ],
            [
              110.75,
              -8.06
            ]
          ]
        ]
      }
    },
    {
      "type": "Feature",
      "properties": {
        "KECAMATAN": "Purwosari"
      },
      "geometry": {
        "type": "Polygon",
        "coordinates": [
          [
            [
              110.8,
              -8.06
            ],
            [
              110.845,
              -8.06
            ],
            [
              110.845,
              -8.105
            ],
            [
              110.8,
              -8.105
            ],
            [
              110.8,
              -8.06
            ]
          ]
        ]
      }
    },
    {
      "type": "Feature",
      "properties": {
        "KECAMATAN": "Rongkop"
      },
      "geometry": {
        "type": "Polygon",
        "coordinates": [
          [
            [
              110.85,
              -8.06
            ],
            [
              110.895,
              -8.06
            ],
            [
              110.895,
              -8.105
            ],
            [
              110.85,
              -8.105
            ],
            [
              110.85,
              -8.06
            ]
          ]
        ]
      }
    }
  ]
}